{"fetched_at":"2026-03-29T16:36:15Z","count":15609,"tles":[{"name":"STARLINK-34992","line1":"1 65412U 25192J   26087.86685977  .00024559  00000+0  83825-3 0  9999","line2":"2 65412  53.1613 143.0421 0001432  88.8582 271.2583 15.30212921 32305","category":"Starlink"}]}