{
  "norad_id": 65412,
  "name": "STARLINK-34992",
  "history": [
    {
      "epoch": "2026-03-28T20:48:16.684128",
      "apogee_km": 476.15802147184513,
      "perigee_km": 474.19495835579437,
      "latitude_deg": -42.20783510844117,
      "longitude_deg": 84.41853792010807,
      "semi_major_axis_km": 6853.3134899138195,
      "eccentricity": 0.00014322,
      "inclination_deg": 53.1613,
      "raan_deg": 143.0421,
      "arg_perigee_deg": 88.8582,
      "mean_anomaly_deg": 271.2583,
      "mean_motion_rev_day": 15.30212921
    }
  ]
}